start=new Date('2022-04-23T00:00:00.000Z').valueOf();
sats=[{"EPOCH":"2022-04-22T22:00:00.999936","ECCENTRICITY":"0.00027480","REV_AT_EPOCH":"1071","MEAN_ANOMALY":"325.8911","SEMIMAJOR_AXIS":"6727.888","TIME_SYSTEM":"UTC","CENTER_NAME":"EARTH","DECAY_DATE":null,"ELEMENT_SET_NO":"999","ARG_OF_PERICENTER":"11.6786","OBJECT_TYPE":"PAYLOAD","SITE":"AFETR","EPHEMERIS_TYPE":"0","MEAN_MOTION_DDOT":"0.0000000000000","COUNTRY_CODE":"US","LAUNCH_DATE":"2022-02-21","MEAN_MOTION_DOT":"-0.00101781","PERIAPSIS":"347.904","BSTAR":"-0.00072930000000","CLASSIFICATION_TYPE":"U","REF_FRAME":"TEME","FILE":"3411757","NORAD_CAT_ID":"51756","TLE_LINE2":"2 51756  53.2131 201.0378 0002748  11.6786 325.8911 15.73202578 10710","GP_ID":"201834386","OBJECT_ID":"2022-016AU","OBJECT_NAME":"STARLINK-3513","MEAN_MOTION":"15.73202578","APOAPSIS":"351.602","RA_OF_ASC_NODE":"201.0378","MEAN_ELEMENT_THEORY":"SGP4","TLE_LINE1":"1 51756U 22016AU  22112.91667824 -.00101781  00000-0 -72930-3 0  9990","PERIOD":"91.533","RCS_SIZE":"LARGE","INCLINATION":"53.2131"},{"OBJECT_ID":"2022-016AV","RA_OF_ASC_NODE":"202.2728","MEAN_ELEMENT_THEORY":"SGP4","OBJECT_NAME":"STARLINK-3459","MEAN_MOTION":"15.73217096","APOAPSIS":"351.523","PERIOD":"91.532","TLE_LINE1":"1 51757U 22016AV  22112.66667824 -.00042158  00000-0 -29717-3 0  9990","INCLINATION":"53.2125","RCS_SIZE":"LARGE","PERIAPSIS":"347.900","MEAN_MOTION_DOT":"-0.00042158","BSTAR":"-0.00029717000000","CLASSIFICATION_TYPE":"U","FILE":"3411418","TLE_LINE2":"2 51757  53.2125 202.2728 0002693  16.4020 345.1253 15.73217096 10725","NORAD_CAT_ID":"51757","GP_ID":"201801728","REF_FRAME":"TEME","ARG_OF_PERICENTER":"16.4020","OBJECT_TYPE":"PAYLOAD","SITE":"AFETR","EPHEMERIS_TYPE":"0","MEAN_MOTION_DDOT":"0.0000000000000","COUNTRY_CODE":"US","LAUNCH_DATE":"2022-02-21","EPOCH":"2022-04-22T16:00:00.999936","ECCENTRICITY":"0.00026930","SEMIMAJOR_AXIS":"6727.846","TIME_SYSTEM":"UTC","REV_AT_EPOCH":"1072","MEAN_ANOMALY":"345.1253","ELEMENT_SET_NO":"999","CENTER_NAME":"EARTH","DECAY_DATE":null},{"BSTAR":"-0.00066455000000","MEAN_MOTION_DOT":"-0.00092889","PERIAPSIS":"347.693","REF_FRAME":"TEME","NORAD_CAT_ID":"51758","TLE_LINE2":"2 51758  53.2130 201.0350 0003077   8.0160 330.8429 15.73198975 10785","GP_ID":"201834393","FILE":"3411757","CLASSIFICATION_TYPE":"U","APOAPSIS":"351.833","MEAN_MOTION":"15.73198975","OBJECT_NAME":"STARLINK-3458","MEAN_ELEMENT_THEORY":"SGP4","RA_OF_ASC_NODE":"201.0350","OBJECT_ID":"2022-016AW","INCLINATION":"53.2130","RCS_SIZE":"LARGE","TLE_LINE1":"1 51758U 22016AW  22112.91667824 -.00092889  00000-0 -66455-3 0  9995","PERIOD":"91.533","ECCENTRICITY":"0.00030770","EPOCH":"2022-04-22T22:00:00.999936","DECAY_DATE":null,"CENTER_NAME":"EARTH","ELEMENT_SET_NO":"999","MEAN_ANOMALY":"330.8429","REV_AT_EPOCH":"1078","TIME_SYSTEM":"UTC","SEMIMAJOR_AXIS":"6727.898","OBJECT_TYPE":"PAYLOAD","SITE":"AFETR","EPHEMERIS_TYPE":"0","ARG_OF_PERICENTER":"8.0160","LAUNCH_DATE":"2022-02-21","MEAN_MOTION_DDOT":"0.0000000000000","COUNTRY_CODE":"US"},{"OBJECT_ID":"2022-016AX","MEAN_ELEMENT_THEORY":"SGP4","RA_OF_ASC_NODE":"202.2695","APOAPSIS":"351.623","MEAN_MOTION":"15.73215697","OBJECT_NAME":"STARLINK-3456","PERIOD":"91.532","TLE_LINE1":"1 51759U 22016AX  22112.66667824 -.00048786  00000-0 -34487-3 0  9995","RCS_SIZE":"LARGE","INCLINATION":"53.2124","PERIAPSIS":"347.807","MEAN_MOTION_DOT":"-0.00048786","BSTAR":"-0.00034487000000","CLASSIFICATION_TYPE":"U","GP_ID":"201801717","TLE_LINE2":"2 51759  53.2124 202.2695 0002836  12.5191 350.2666 15.73215697 10746","NORAD_CAT_ID":"51759","FILE":"3411418","REF_FRAME":"TEME","SITE":"AFETR","OBJECT_TYPE":"PAYLOAD","EPHEMERIS_TYPE":"0","ARG_OF_PERICENTER":"12.5191","LAUNCH_DATE":"2022-02-21","MEAN_MOTION_DDOT":"0.0000000000000","COUNTRY_CODE":"US","EPOCH":"2022-04-22T16:00:00.999936","ECCENTRICITY":"0.00028360","TIME_SYSTEM":"UTC","SEMIMAJOR_AXIS":"6727.850","MEAN_ANOMALY":"350.2666","REV_AT_EPOCH":"1074","ELEMENT_SET_NO":"999","DECAY_DATE":null,"CENTER_NAME":"EARTH"},{"EPOCH":"2022-04-22T22:00:00.999936","ECCENTRICITY":"0.00017680","SEMIMAJOR_AXIS":"6768.513","TIME_SYSTEM":"UTC","MEAN_ANOMALY":"356.2874","REV_AT_EPOCH":"1008","ELEMENT_SET_NO":"999","DECAY_DATE":null,"CENTER_NAME":"EARTH","SITE":"AFWTR","OBJECT_TYPE":"PAYLOAD","EPHEMERIS_TYPE":"0","ARG_OF_PERICENTER":"27.7902","LAUNCH_DATE":"2022-02-25","MEAN_MOTION_DDOT":"0.0000000000000","COUNTRY_CODE":"US","PERIAPSIS":"389.182","MEAN_MOTION_DOT":"-0.00715478","BSTAR":"-0.00983340000000","CLASSIFICATION_TYPE":"U","TLE_LINE2":"2 51768  53.2173 225.5162 0001768  27.7902 356.2874 15.59059998 10086","NORAD_CAT_ID":"51768","GP_ID":"201834582","FILE":"3411777","REF_FRAME":"TEME","OBJECT_ID":"2022-017A","MEAN_ELEMENT_THEORY":"SGP4","RA_OF_ASC_NODE":"225.5162","APOAPSIS":"391.575","MEAN_MOTION":"15.59059998","OBJECT_NAME":"STARLINK-3622","PERIOD":"92.363","TLE_LINE1":"1 51768U 22017A   22112.91667824 -.00715478  00000-0 -98334-2 0  9993","RCS_SIZE":"LARGE","INCLINATION":"53.2173"},{"ECCENTRICITY":"0.00018680","EPOCH":"2022-04-22T22:00:00.999936","ELEMENT_SET_NO":"999","DECAY_DATE":null,"CENTER_NAME":"EARTH","TIME_SYSTEM":"UTC","SEMIMAJOR_AXIS":"6768.488","MEAN_ANOMALY":"359.8971","REV_AT_EPOCH":"1008","SITE":"AFWTR","OBJECT_TYPE":"PAYLOAD","EPHEMERIS_TYPE":"0","ARG_OF_PERICENTER":"25.7380","LAUNCH_DATE":"2022-02-25","MEAN_MOTION_DDOT":"0.0000000000000","COUNTRY_CODE":"US","BSTAR":"-0.00983050000000","PERIAPSIS":"389.089","MEAN_MOTION_DOT":"-0.00715525","TLE_LINE2":"2 51769  53.2173 225.5309 0001868  25.7380 359.8971 15.59068748 10089","GP_ID":"201834574","NORAD_CAT_ID":"51769","FILE":"3411777","REF_FRAME":"TEME","CLASSIFICATION_TYPE":"U","MEAN_ELEMENT_THEORY":"SGP4","RA_OF_ASC_NODE":"225.5309","MEAN_MOTION":"15.59068748","APOAPSIS":"391.617","OBJECT_NAME":"STARLINK-3621","OBJECT_ID":"2022-017B","INCLINATION":"53.2173","RCS_SIZE":"LARGE","PERIOD":"92.363","TLE_LINE1":"1 51769U 22017B   22112.91667824 -.00715525  00000-0 -98305-2 0  9995"},{"TLE_LINE1":"1 51770U 22017C   22112.91667824 -.00715449  00000-0 -98312-2 0  9990","PERIOD":"92.363","RCS_SIZE":"LARGE","INCLINATION":"53.2173","OBJECT_ID":"2022-017C","MEAN_MOTION":"15.59064337","APOAPSIS":"391.593","OBJECT_NAME":"STARLINK-3612","MEAN_ELEMENT_THEORY":"SGP4","RA_OF_ASC_NODE":"225.5236","CLASSIFICATION_TYPE":"U","REF_FRAME":"TEME","TLE_LINE2":"2 51770  53.2173 225.5236 0001813  26.7039 358.1524 15.59064337 10088","NORAD_CAT_ID":"51770","GP_ID":"201834558","FILE":"3411771","MEAN_MOTION_DOT":"-0.00715449","PERIAPSIS":"389.139","BSTAR":"-0.00983120000000","LAUNCH_DATE":"2022-02-25","MEAN_MOTION_DDOT":"0.0000000000000","COUNTRY_CODE":"US","EPHEMERIS_TYPE":"0","SITE":"AFWTR","OBJECT_TYPE":"PAYLOAD","ARG_OF_PERICENTER":"26.7039","MEAN_ANOMALY":"358.1524","REV_AT_EPOCH":"1008","SEMIMAJOR_AXIS":"6768.501","TIME_SYSTEM":"UTC","DECAY_DATE":null,"CENTER_NAME":"EARTH","ELEMENT_SET_NO":"999","EPOCH":"2022-04-22T22:00:00.999936","ECCENTRICITY":"0.00018130"},{"OBJECT_TYPE":"PAYLOAD","SITE":"AFWTR","EPHEMERIS_TYPE":"0","ARG_OF_PERICENTER":"26.0848","LAUNCH_DATE":"2022-02-25","MEAN_MOTION_DDOT":"0.0000000000000","COUNTRY_CODE":"US","EPOCH":"2022-04-22T22:00:00.999936","ECCENTRICITY":"0.00018410","MEAN_ANOMALY":"0.3291","REV_AT_EPOCH":"1008","TIME_SYSTEM":"UTC","SEMIMAJOR_AXIS":"6768.476","DECAY_DATE":null,"CENTER_NAME":"EARTH","ELEMENT_SET_NO":"999","OBJECT_ID":"2022-017D","MEAN_MOTION":"15.59073027","APOAPSIS":"391.587","OBJECT_NAME":"STARLINK-3614","MEAN_ELEMENT_THEORY":"SGP4","RA_OF_ASC_NODE":"225.5360","TLE_LINE1":"1 51771U 22017D   22112.91667824 -.00715459  00000-0 -98280-2 0  9996","PERIOD":"92.363","INCLINATION":"53.2173","RCS_SIZE":"LARGE","MEAN_MOTION_DOT":"-0.00715459","PERIAPSIS":"389.095","BSTAR":"-0.00982800000000","CLASSIFICATION_TYPE":"U","REF_FRAME":"TEME","GP_ID":"201834985","TLE_LINE2":"2 51771  53.2173 225.5360 0001841  26.0848   0.3291 15.59073027 10082","NORAD_CAT_ID":"51771","FILE":"3411774"},{"RCS_SIZE":"LARGE","INCLINATION":"53.2173","TLE_LINE1":"1 51772U 22017E   22112.91667824 -.00715351  00000-0 -98216-2 0  9997","PERIOD":"92.362","OBJECT_NAME":"STARLINK-3623","APOAPSIS":"391.532","MEAN_MOTION":"15.59085953","RA_OF_ASC_NODE":"225.5517","MEAN_ELEMENT_THEORY":"SGP4","OBJECT_ID":"2022-017E","REF_FRAME":"TEME","FILE":"3411774","GP_ID":"201834611","TLE_LINE2":"2 51772  53.2173 225.5517 0001816  26.5390   2.2109 15.59085953 10132","NORAD_CAT_ID":"51772","CLASSIFICATION_TYPE":"U","BSTAR":"-0.00982160000000","MEAN_MOTION_DOT":"-0.00715351","PERIAPSIS":"389.074","MEAN_MOTION_DDOT":"0.0000000000000","COUNTRY_CODE":"US","LAUNCH_DATE":"2022-02-25","ARG_OF_PERICENTER":"26.5390","SITE":"AFWTR","OBJECT_TYPE":"PAYLOAD","EPHEMERIS_TYPE":"0","CENTER_NAME":"EARTH","DECAY_DATE":null,"ELEMENT_SET_NO":"999","REV_AT_EPOCH":"1013","MEAN_ANOMALY":"2.2109","SEMIMAJOR_AXIS":"6768.438","TIME_SYSTEM":"UTC","ECCENTRICITY":"0.00018160","EPOCH":"2022-04-22T22:00:00.999936"},{"ARG_OF_PERICENTER":"27.9030","SITE":"AFWTR","OBJECT_TYPE":"PAYLOAD","EPHEMERIS_TYPE":"0","COUNTRY_CODE":"US","MEAN_MOTION_DDOT":"0.0000000000000","LAUNCH_DATE":"2022-02-25","ECCENTRICITY":"0.00017850","EPOCH":"2022-04-22T22:00:00.999936","ELEMENT_SET_NO":"999","CENTER_NAME":"EARTH","DECAY_DATE":null,"TIME_SYSTEM":"UTC","SEMIMAJOR_AXIS":"6768.463","REV_AT_EPOCH":"1009","MEAN_ANOMALY":"359.2897","RA_OF_ASC_NODE":"225.5368","MEAN_ELEMENT_THEORY":"SGP4","OBJECT_NAME":"STARLINK-3624","MEAN_MOTION":"15.59077319","APOAPSIS":"391.536","OBJECT_ID":"2022-017F","INCLINATION":"53.2173","RCS_SIZE":"LARGE","PERIOD":"92.362","TLE_LINE1":"1 51773U 22017F   22112.91667824 -.00715509  00000-0 -98273-2 0  9996","BSTAR":"-0.00982730000000","PERIAPSIS":"389.120","MEAN_MOTION_DOT":"-0.00715509","FILE":"3411775","TLE_LINE2":"2 51773  53.2173 225.5368 0001785  27.9030 359.2897 15.59077319 10099","NORAD_CAT_ID":"51773","GP_ID":"201834633","REF_FRAME":"TEME","CLASSIFICATION_TYPE":"U"}];
